ISS (ZARYA)             
1 25544U 98067A   26042.18139057  .00011529  00000+0  22024-3 0  9998
2 25544  51.6314 203.3958 0011073  86.6860 273.5395 15.48540110552227
CSS (TIANHE)            
1 48274U 21035A   26042.27681573  .00028117  00000+0  34755-3 0  9994
2 48274  41.4684   8.7316 0004347  58.3290 301.7972 15.59483141273488
ISS (NAUKA)             
1 49044U 21066A   26042.18139057  .00011529  00000+0  22024-3 0  9994
2 49044  51.6314 203.3958 0011073  86.6860 273.5395 15.48540110230445
FREGAT DEB              
1 49271U 11037PF  26041.09846007  .00041933  00000+0  68949-1 0  9998
2 49271  51.6599  23.3386 0932501 356.0447   3.3394 12.38292170209271
CSS (WENTIAN)           
1 53239U 22085A   26042.27681573  .00028117  00000+0  34755-3 0  9997
2 53239  41.4684   8.7316 0004347  58.3290 301.7972 15.59483141173844
CSS (MENGTIAN)          
1 54216U 22143A   26042.27681573  .00028117  00000+0  34755-3 0  9998
2 54216  41.4684   8.7316 0004347  58.3290 301.7972 15.59483141158641
PROGRESS-MS 31          
1 64751U 25146A   26042.18139057  .00011529  00000+0  22024-3 0  9999
2 64751  51.6314 203.3958 0011073  86.6860 273.5395 15.48540110  6752
TIANZHOU-9              
1 64786U 25149A   26042.27681573  .00028117  00000+0  34755-3 0  9990
2 64786  41.4684   8.7316 0004347  58.3290 301.7972 15.59483141255305
DRAGON CRS-33           
1 65304U 25186A   26042.18139057  .00011529  00000+0  22024-3 0  9998
2 65304  51.6314 203.3958 0011073  86.6860 273.5395 15.48540110   111
PROGRESS-MS 32          
1 65586U 25204A   26042.18139057  .00011529  00000+0  22024-3 0  9991
2 65586  51.6314 203.3958 0011073  86.6860 273.5395 15.48540110   270
CYGNUS NG-23            
1 65616U 25208A   26042.18139057  .00011529  00000+0  22024-3 0  9999
2 65616  51.6314 203.3958 0011073  86.6860 273.5395 15.48540110   229
ISS OBJECT XK           
1 65731U 98067XK  26041.67618334  .00285023  00000+0  11166-2 0  9999
2 65731  51.6219 189.4653 0004323 297.1516  62.9047 15.85635055 22585
