CCSDS_OMM_VERS = 2.0
CREATION_DATE  = 
ORIGINATOR     = 

OBJECT_NAME    = ISS (ZARYA)
OBJECT_ID      = 1998-067A
CENTER_NAME    = EARTH
REF_FRAME      = TEME
TIME_SYSTEM    = UTC
MEAN_ELEMENT_THEORY = SGP/SGP4

EPOCH          = 2026-02-11T04:21:12.145248
MEAN_MOTION    = 15.48540110
ECCENTRICITY   = .00110736
INCLINATION    = 51.6314
RA_OF_ASC_NODE = 203.3958
ARG_OF_PERICENTER = 86.6860
MEAN_ANOMALY   = 273.5395

EPHEMERIS_TYPE = 0
CLASSIFICATION_TYPE = U
NORAD_CAT_ID   = 25544
ELEMENT_SET_NO = 999
REV_AT_EPOCH   = 55222
BSTAR          = .22024123E-3
MEAN_MOTION_DOT = .11529E-3
MEAN_MOTION_DDOT = 0

CCSDS_OMM_VERS = 2.0
CREATION_DATE  = 
ORIGINATOR     = 

OBJECT_NAME    = CSS (TIANHE)
OBJECT_ID      = 2021-035A
CENTER_NAME    = EARTH
REF_FRAME      = TEME
TIME_SYSTEM    = UTC
MEAN_ELEMENT_THEORY = SGP/SGP4

EPOCH          = 2026-02-11T06:38:36.879072
MEAN_MOTION    = 15.59483141
ECCENTRICITY   = .00043473
INCLINATION    = 41.4684
RA_OF_ASC_NODE = 8.7316
ARG_OF_PERICENTER = 58.3290
MEAN_ANOMALY   = 301.7972

EPHEMERIS_TYPE = 0
CLASSIFICATION_TYPE = U
NORAD_CAT_ID   = 48274
ELEMENT_SET_NO = 999
REV_AT_EPOCH   = 27348
BSTAR          = .3475522E-3
MEAN_MOTION_DOT = .28117E-3
MEAN_MOTION_DDOT = 0

CCSDS_OMM_VERS = 2.0
CREATION_DATE  = 
ORIGINATOR     = 

OBJECT_NAME    = ISS (NAUKA)
OBJECT_ID      = 2021-066A
CENTER_NAME    = EARTH
REF_FRAME      = TEME
TIME_SYSTEM    = UTC
MEAN_ELEMENT_THEORY = SGP/SGP4

EPOCH          = 2026-02-11T04:21:12.145248
MEAN_MOTION    = 15.48540110
ECCENTRICITY   = .00110736
INCLINATION    = 51.6314
RA_OF_ASC_NODE = 203.3958
ARG_OF_PERICENTER = 86.6860
MEAN_ANOMALY   = 273.5395

EPHEMERIS_TYPE = 0
CLASSIFICATION_TYPE = U
NORAD_CAT_ID   = 49044
ELEMENT_SET_NO = 999
REV_AT_EPOCH   = 23044
BSTAR          = .22024123E-3
MEAN_MOTION_DOT = .11529E-3
MEAN_MOTION_DDOT = 0

CCSDS_OMM_VERS = 2.0
CREATION_DATE  = 
ORIGINATOR     = 

OBJECT_NAME    = FREGAT DEB
OBJECT_ID      = 2011-037PF
CENTER_NAME    = EARTH
REF_FRAME      = TEME
TIME_SYSTEM    = UTC
MEAN_ELEMENT_THEORY = SGP/SGP4

EPOCH          = 2026-02-10T02:21:46.950048
MEAN_MOTION    = 12.38292170
ECCENTRICITY   = .09325013
INCLINATION    = 51.6599
RA_OF_ASC_NODE = 23.3386
ARG_OF_PERICENTER = 356.0447
MEAN_ANOMALY   = 3.3394

EPHEMERIS_TYPE = 0
CLASSIFICATION_TYPE = U
NORAD_CAT_ID   = 49271
ELEMENT_SET_NO = 999
REV_AT_EPOCH   = 20927
BSTAR          = .68949102E-1
MEAN_MOTION_DOT = .41933E-3
MEAN_MOTION_DDOT = 0

CCSDS_OMM_VERS = 2.0
CREATION_DATE  = 
ORIGINATOR     = 

OBJECT_NAME    = CSS (WENTIAN)
OBJECT_ID      = 2022-085A
CENTER_NAME    = EARTH
REF_FRAME      = TEME
TIME_SYSTEM    = UTC
MEAN_ELEMENT_THEORY = SGP/SGP4

EPOCH          = 2026-02-11T06:38:36.879072
MEAN_MOTION    = 15.59483141
ECCENTRICITY   = .00043473
INCLINATION    = 41.4684
RA_OF_ASC_NODE = 8.7316
ARG_OF_PERICENTER = 58.3290
MEAN_ANOMALY   = 301.7972

EPHEMERIS_TYPE = 0
CLASSIFICATION_TYPE = U
NORAD_CAT_ID   = 53239
ELEMENT_SET_NO = 999
REV_AT_EPOCH   = 17384
BSTAR          = .3475522E-3
MEAN_MOTION_DOT = .28117E-3
MEAN_MOTION_DDOT = 0

CCSDS_OMM_VERS = 2.0
CREATION_DATE  = 
ORIGINATOR     = 

OBJECT_NAME    = CSS (MENGTIAN)
OBJECT_ID      = 2022-143A
CENTER_NAME    = EARTH
REF_FRAME      = TEME
TIME_SYSTEM    = UTC
MEAN_ELEMENT_THEORY = SGP/SGP4

EPOCH          = 2026-02-11T06:38:36.879072
MEAN_MOTION    = 15.59483141
ECCENTRICITY   = .00043473
INCLINATION    = 41.4684
RA_OF_ASC_NODE = 8.7316
ARG_OF_PERICENTER = 58.3290
MEAN_ANOMALY   = 301.7972

EPHEMERIS_TYPE = 0
CLASSIFICATION_TYPE = U
NORAD_CAT_ID   = 54216
ELEMENT_SET_NO = 999
REV_AT_EPOCH   = 15864
BSTAR          = .3475522E-3
MEAN_MOTION_DOT = .28117E-3
MEAN_MOTION_DDOT = 0

CCSDS_OMM_VERS = 2.0
CREATION_DATE  = 
ORIGINATOR     = 

OBJECT_NAME    = PROGRESS-MS 31
OBJECT_ID      = 2025-146A
CENTER_NAME    = EARTH
REF_FRAME      = TEME
TIME_SYSTEM    = UTC
MEAN_ELEMENT_THEORY = SGP/SGP4

EPOCH          = 2026-02-11T04:21:12.145248
MEAN_MOTION    = 15.48540110
ECCENTRICITY   = .00110736
INCLINATION    = 51.6314
RA_OF_ASC_NODE = 203.3958
ARG_OF_PERICENTER = 86.6860
MEAN_ANOMALY   = 273.5395

EPHEMERIS_TYPE = 0
CLASSIFICATION_TYPE = U
NORAD_CAT_ID   = 64751
ELEMENT_SET_NO = 999
REV_AT_EPOCH   = 675
BSTAR          = .22024123E-3
MEAN_MOTION_DOT = .11529E-3
MEAN_MOTION_DDOT = 0

CCSDS_OMM_VERS = 2.0
CREATION_DATE  = 
ORIGINATOR     = 

OBJECT_NAME    = TIANZHOU-9
OBJECT_ID      = 2025-149A
CENTER_NAME    = EARTH
REF_FRAME      = TEME
TIME_SYSTEM    = UTC
MEAN_ELEMENT_THEORY = SGP/SGP4

EPOCH          = 2026-02-11T06:38:36.879072
MEAN_MOTION    = 15.59483141
ECCENTRICITY   = .00043473
INCLINATION    = 41.4684
RA_OF_ASC_NODE = 8.7316
ARG_OF_PERICENTER = 58.3290
MEAN_ANOMALY   = 301.7972

EPHEMERIS_TYPE = 0
CLASSIFICATION_TYPE = U
NORAD_CAT_ID   = 64786
ELEMENT_SET_NO = 999
REV_AT_EPOCH   = 25530
BSTAR          = .3475522E-3
MEAN_MOTION_DOT = .28117E-3
MEAN_MOTION_DDOT = 0

CCSDS_OMM_VERS = 2.0
CREATION_DATE  = 
ORIGINATOR     = 

OBJECT_NAME    = DRAGON CRS-33
OBJECT_ID      = 2025-186A
CENTER_NAME    = EARTH
REF_FRAME      = TEME
TIME_SYSTEM    = UTC
MEAN_ELEMENT_THEORY = SGP/SGP4

EPOCH          = 2026-02-11T04:21:12.145248
MEAN_MOTION    = 15.48540110
ECCENTRICITY   = .00110736
INCLINATION    = 51.6314
RA_OF_ASC_NODE = 203.3958
ARG_OF_PERICENTER = 86.6860
MEAN_ANOMALY   = 273.5395

EPHEMERIS_TYPE = 0
CLASSIFICATION_TYPE = U
NORAD_CAT_ID   = 65304
ELEMENT_SET_NO = 999
REV_AT_EPOCH   = 11
BSTAR          = .22024123E-3
MEAN_MOTION_DOT = .11529E-3
MEAN_MOTION_DDOT = 0

CCSDS_OMM_VERS = 2.0
CREATION_DATE  = 
ORIGINATOR     = 

OBJECT_NAME    = PROGRESS-MS 32
OBJECT_ID      = 2025-204A
CENTER_NAME    = EARTH
REF_FRAME      = TEME
TIME_SYSTEM    = UTC
MEAN_ELEMENT_THEORY = SGP/SGP4

EPOCH          = 2026-02-11T04:21:12.145248
MEAN_MOTION    = 15.48540110
ECCENTRICITY   = .00110736
INCLINATION    = 51.6314
RA_OF_ASC_NODE = 203.3958
ARG_OF_PERICENTER = 86.6860
MEAN_ANOMALY   = 273.5395

EPHEMERIS_TYPE = 0
CLASSIFICATION_TYPE = U
NORAD_CAT_ID   = 65586
ELEMENT_SET_NO = 999
REV_AT_EPOCH   = 27
BSTAR          = .22024123E-3
MEAN_MOTION_DOT = .11529E-3
MEAN_MOTION_DDOT = 0

CCSDS_OMM_VERS = 2.0
CREATION_DATE  = 
ORIGINATOR     = 

OBJECT_NAME    = CYGNUS NG-23
OBJECT_ID      = 2025-208A
CENTER_NAME    = EARTH
REF_FRAME      = TEME
TIME_SYSTEM    = UTC
MEAN_ELEMENT_THEORY = SGP/SGP4

EPOCH          = 2026-02-11T04:21:12.145248
MEAN_MOTION    = 15.48540110
ECCENTRICITY   = .00110736
INCLINATION    = 51.6314
RA_OF_ASC_NODE = 203.3958
ARG_OF_PERICENTER = 86.6860
MEAN_ANOMALY   = 273.5395

EPHEMERIS_TYPE = 0
CLASSIFICATION_TYPE = U
NORAD_CAT_ID   = 65616
ELEMENT_SET_NO = 999
REV_AT_EPOCH   = 22
BSTAR          = .22024123E-3
MEAN_MOTION_DOT = .11529E-3
MEAN_MOTION_DDOT = 0

CCSDS_OMM_VERS = 2.0
CREATION_DATE  = 
ORIGINATOR     = 

OBJECT_NAME    = ISS OBJECT XK
OBJECT_ID      = 1998-067XK
CENTER_NAME    = EARTH
REF_FRAME      = TEME
TIME_SYSTEM    = UTC
MEAN_ELEMENT_THEORY = SGP/SGP4

EPOCH          = 2026-02-10T16:13:42.240576
MEAN_MOTION    = 15.85635055
ECCENTRICITY   = .00043232
INCLINATION    = 51.6219
RA_OF_ASC_NODE = 189.4653
ARG_OF_PERICENTER = 297.1516
MEAN_ANOMALY   = 62.9047

EPHEMERIS_TYPE = 0
CLASSIFICATION_TYPE = U
NORAD_CAT_ID   = 65731
ELEMENT_SET_NO = 999
REV_AT_EPOCH   = 2258
BSTAR          = .11165889E-2
MEAN_MOTION_DOT = .285023E-2
MEAN_MOTION_DDOT = 0

